[{"OBJECT_NAME":"YAOGAN-33 01","OBJECT_ID":"2020-103A","EPOCH":"2026-03-09T23:33:33.988896","MEAN_MOTION":14.58835093,"ECCENTRICITY":0.00042815,"INCLINATION":98.0558,"RA_OF_ASC_NODE":313.645,"ARG_OF_PERICENTER":85.5228,"MEAN_ANOMALY":274.646,"EPHEMERIS_TYPE":0,"CLASSIFICATION_TYPE":"U","NORAD_CAT_ID":47302,"ELEMENT_SET_NO":999,"REV_AT_EPOCH":27684,"BSTAR":0.00014306185,"MEAN_MOTION_DOT":6.25e-6,"MEAN_MOTION_DDOT":0},{"OBJECT_NAME":"NOAA 16 DEB","OBJECT_ID":"2000-055EG","EPOCH":"2026-03-09T11:53:59.641152","MEAN_MOTION":14.55208498,"ECCENTRICITY":0.0026476,"INCLINATION":99.0517,"RA_OF_ASC_NODE":318.7652,"ARG_OF_PERICENTER":44.5393,"MEAN_ANOMALY":315.7924,"EPHEMERIS_TYPE":0,"CLASSIFICATION_TYPE":"U","NORAD_CAT_ID":41227,"ELEMENT_SET_NO":999,"REV_AT_EPOCH":53308,"BSTAR":0.0026513039,"MEAN_MOTION_DOT":0.00011487,"MEAN_MOTION_DDOT":0}]
